*******************************************************************************
Ephemeris / WWW_USER Mon Mar 24 10:59:04 2025 Pasadena, USA      / Horizons    
*******************************************************************************
Target body name: (2018 TS1)                      {source: JPL#6}
Center body name: Earth (399)                     {source: DE441}
Center-site name: Mauna Kea
*******************************************************************************
Start time      : A.D. 2018-Aug-22 04:55:00.0000 UT      
Stop  time      : A.D. 2018-Aug-22 15:54:00.0000 UT      
Step-size       : 1 minutes
*******************************************************************************
Target pole/equ : undefined
Target radii    : undefined                                                    
Center geodetic : 204.5278, 19.8260847, 4.21024   {E-lon(deg),Lat(deg),Alt(km)}
Center cylindric: 204.5278, 6006.35451, 2151.0229 {E-lon(deg),Dxy(km),Dz(km)}
Center pole/equ : ITRF93                          {East-longitude positive}
Center radii    : 6378.137, 6378.137, 6356.752 km {Equator_a, b, pole_c}       
Target primary  : Sun
Vis. interferer : MOON (R_eq= 1737.400) km        {source: DE441}
Rel. light bend : Sun                             {source: DE441}
Rel. lght bnd GM: 1.3271E+11 km^3/s^2                                          
Small-body perts: Yes                             {source: SB441-N16}
Atmos refraction: NO (AIRLESS)
RA format       : HMS
Time format     : CAL 
Calendar mode   : Mixed Julian/Gregorian
RTS-only print  : NO       
EOP file        : eop.250321.p250617                                           
EOP coverage    : DATA-BASED 1962-JAN-20 TO 2025-MAR-21. PREDICTS-> 2025-JUN-16
Units conversion: 1 au= 149597870.700 km, c= 299792.458 km/s, 1 day= 86400.0 s 
Table cut-offs 1: Elevation (-90.0deg=NO ),Airmass (>38.000=NO), Daylight (YES)
Table cut-offs 2: Solar elongation (  0.0,180.0=NO ),Local Hour Angle( 0.0=NO )
Table cut-offs 3: RA/DEC angular rate (     0.0=NO )                           
*******************************************************************************
Initial IAU76/J2000 heliocentric ecliptic osculating elements (au, days, deg.):
  EPOCH=  2458397.5 ! 2018-Oct-06.00 (TDB)         Residual RMS= .30565        
   EC= .4232280089037878   QR= .7951431742456924   TP= 2458457.9340165281      
   OM= 356.454891650426    W=  97.01949783285009   IN= 2.243887958983723       
  Equivalent ICRF heliocentric cartesian coordinates (au, au/d):
   X= 1.037748414669454E+00  Y= 2.036665248544260E-01  Z= 1.007134111375925E-01
  VX=-1.028941390482545E-02 VY= 1.387292408111162E-02 VZ= 6.642652492995660E-03
Asteroid physical parameters (km, seconds, rotational period in hours):        
   GM= n.a.                RAD= n.a.               ROTPER= n.a.                
   H= 25.7                 G= .150                 B-V= n.a.                   
                           ALBEDO= n.a.            STYP= n.a.                  
*******************************************************************************
 Date__(UT)__HR:MN     R.A._________(ICRF)_________DEC
******************************************************
$$SOE
 2018-Aug-22 04:55 Cm  00 32 30.136419 +01 14 37.06290
 2018-Aug-22 04:56 Cm  00 32 30.168501 +01 14 37.33408
 2018-Aug-22 04:57 Cm  00 32 30.200560 +01 14 37.60526
 2018-Aug-22 04:58 Cm  00 32 30.232597 +01 14 37.87645
 2018-Aug-22 04:59 Cm  00 32 30.264611 +01 14 38.14764
 2018-Aug-22 05:00 Cm  00 32 30.296603 +01 14 38.41884
 2018-Aug-22 05:01 Cm  00 32 30.328571 +01 14 38.69004
 2018-Aug-22 05:02 Cm  00 32 30.360517 +01 14 38.96125
 2018-Aug-22 05:03 Cm  00 32 30.392440 +01 14 39.23246
 2018-Aug-22 05:04 Cm  00 32 30.424340 +01 14 39.50367
 2018-Aug-22 05:05 Cm  00 32 30.456217 +01 14 39.77489
 2018-Aug-22 05:06 Cm  00 32 30.488071 +01 14 40.04611
 2018-Aug-22 05:07 Cm  00 32 30.519902 +01 14 40.31734
 2018-Aug-22 05:08 Cm  00 32 30.551710 +01 14 40.58857
 2018-Aug-22 05:09 Nm  00 32 30.583495 +01 14 40.85980
 2018-Aug-22 05:10 Nm  00 32 30.615256 +01 14 41.13104
 2018-Aug-22 05:11 Nm  00 32 30.646995 +01 14 41.40228
 2018-Aug-22 05:12 Nm  00 32 30.678710 +01 14 41.67352
 2018-Aug-22 05:13 Nm  00 32 30.710401 +01 14 41.94477
 2018-Aug-22 05:14 Nm  00 32 30.742069 +01 14 42.21603
 2018-Aug-22 05:15 Nm  00 32 30.773714 +01 14 42.48728
 2018-Aug-22 05:16 Nm  00 32 30.805335 +01 14 42.75854
 2018-Aug-22 05:17 Nm  00 32 30.836932 +01 14 43.02981
 2018-Aug-22 05:18 Nm  00 32 30.868506 +01 14 43.30108
 2018-Aug-22 05:19 Nm  00 32 30.900057 +01 14 43.57235
 2018-Aug-22 05:20 Nm  00 32 30.931583 +01 14 43.84362
 2018-Aug-22 05:21 Nm  00 32 30.963086 +01 14 44.11490
 2018-Aug-22 05:22 Nm  00 32 30.994565 +01 14 44.38618
 2018-Aug-22 05:23 Nm  00 32 31.026020 +01 14 44.65747
 2018-Aug-22 05:24 Nm  00 32 31.057452 +01 14 44.92876
 2018-Aug-22 05:25 Nm  00 32 31.088859 +01 14 45.20005
 2018-Aug-22 05:26 Nm  00 32 31.120242 +01 14 45.47135
 2018-Aug-22 05:27 Nm  00 32 31.151602 +01 14 45.74265
 2018-Aug-22 05:28 Nm  00 32 31.182937 +01 14 46.01395
 2018-Aug-22 05:29 Nm  00 32 31.214249 +01 14 46.28526
 2018-Aug-22 05:30 Nm  00 32 31.245536 +01 14 46.55657
 2018-Aug-22 05:31 Nm  00 32 31.276799 +01 14 46.82788
 2018-Aug-22 05:32 Nm  00 32 31.308037 +01 14 47.09919
 2018-Aug-22 05:33 Nm  00 32 31.339252 +01 14 47.37051
 2018-Aug-22 05:34 Nm  00 32 31.370442 +01 14 47.64183
 2018-Aug-22 05:35 Am  00 32 31.401608 +01 14 47.91316
 2018-Aug-22 05:36 Am  00 32 31.432750 +01 14 48.18449
 2018-Aug-22 05:37 Am  00 32 31.463867 +01 14 48.45582
 2018-Aug-22 05:38 Am  00 32 31.494959 +01 14 48.72715
 2018-Aug-22 05:39 Am  00 32 31.526027 +01 14 48.99849
 2018-Aug-22 05:40 Am  00 32 31.557071 +01 14 49.26983
 2018-Aug-22 05:41 Am  00 32 31.588090 +01 14 49.54117
 2018-Aug-22 05:42 Am  00 32 31.619085 +01 14 49.81252
 2018-Aug-22 05:43 Am  00 32 31.650054 +01 14 50.08387
 2018-Aug-22 05:44 Am  00 32 31.681000 +01 14 50.35522
 2018-Aug-22 05:45 Am  00 32 31.711920 +01 14 50.62657
 2018-Aug-22 05:46 Am  00 32 31.742816 +01 14 50.89793
 2018-Aug-22 05:47 Am  00 32 31.773687 +01 14 51.16928
 2018-Aug-22 05:48 Am  00 32 31.804533 +01 14 51.44065
 2018-Aug-22 05:49 Am  00 32 31.835355 +01 14 51.71201
 2018-Aug-22 05:50 Am  00 32 31.866151 +01 14 51.98338
 2018-Aug-22 05:51 Am  00 32 31.896923 +01 14 52.25475
 2018-Aug-22 05:52 Am  00 32 31.927669 +01 14 52.52612
 2018-Aug-22 05:53 Am  00 32 31.958391 +01 14 52.79749
 2018-Aug-22 05:54 Am  00 32 31.989088 +01 14 53.06887
 2018-Aug-22 05:55 Am  00 32 32.019759 +01 14 53.34025
 2018-Aug-22 05:56 Am  00 32 32.050406 +01 14 53.61163
 2018-Aug-22 05:57 Am  00 32 32.081028 +01 14 53.88301
 2018-Aug-22 05:58 Am  00 32 32.111624 +01 14 54.15439
 2018-Aug-22 05:59 Am  00 32 32.142196 +01 14 54.42578
 2018-Aug-22 06:00 Am  00 32 32.172742 +01 14 54.69717
 2018-Aug-22 06:01 Am  00 32 32.203263 +01 14 54.96856
 2018-Aug-22 06:02  m  00 32 32.233759 +01 14 55.23996
 2018-Aug-22 06:03  m  00 32 32.264229 +01 14 55.51135
 2018-Aug-22 06:04  m  00 32 32.294675 +01 14 55.78275
 2018-Aug-22 06:05  m  00 32 32.325095 +01 14 56.05415
 2018-Aug-22 06:06  m  00 32 32.355489 +01 14 56.32555
 2018-Aug-22 06:07  m  00 32 32.385859 +01 14 56.59696
 2018-Aug-22 06:08  m  00 32 32.416203 +01 14 56.86836
 2018-Aug-22 06:09  m  00 32 32.446521 +01 14 57.13977
 2018-Aug-22 06:10  m  00 32 32.476814 +01 14 57.41118
 2018-Aug-22 06:11  m  00 32 32.507082 +01 14 57.68259
 2018-Aug-22 06:12  m  00 32 32.537325 +01 14 57.95400
 2018-Aug-22 06:13  m  00 32 32.567541 +01 14 58.22541
 2018-Aug-22 06:14  m  00 32 32.597733 +01 14 58.49683
 2018-Aug-22 06:15  m  00 32 32.627899 +01 14 58.76825
 2018-Aug-22 06:16  m  00 32 32.658039 +01 14 59.03967
 2018-Aug-22 06:17  m  00 32 32.688154 +01 14 59.31109
 2018-Aug-22 06:18  m  00 32 32.718243 +01 14 59.58251
 2018-Aug-22 06:19  m  00 32 32.748306 +01 14 59.85393
 2018-Aug-22 06:20  m  00 32 32.778344 +01 15 00.12535
 2018-Aug-22 06:21  m  00 32 32.808357 +01 15 00.39678
 2018-Aug-22 06:22  m  00 32 32.838343 +01 15 00.66821
 2018-Aug-22 06:23  m  00 32 32.868304 +01 15 00.93964
 2018-Aug-22 06:24  m  00 32 32.898240 +01 15 01.21107
 2018-Aug-22 06:25  m  00 32 32.928149 +01 15 01.48250
 2018-Aug-22 06:26  m  00 32 32.958033 +01 15 01.75393
 2018-Aug-22 06:27  m  00 32 32.987892 +01 15 02.02536
 2018-Aug-22 06:28  m  00 32 33.017724 +01 15 02.29680
 2018-Aug-22 06:29  m  00 32 33.047531 +01 15 02.56823
 2018-Aug-22 06:30  m  00 32 33.077312 +01 15 02.83967
 2018-Aug-22 06:31  m  00 32 33.107067 +01 15 03.11110
 2018-Aug-22 06:32  m  00 32 33.136797 +01 15 03.38254
 2018-Aug-22 06:33  m  00 32 33.166500 +01 15 03.65398
 2018-Aug-22 06:34  m  00 32 33.196178 +01 15 03.92542
 2018-Aug-22 06:35  m  00 32 33.225830 +01 15 04.19686
 2018-Aug-22 06:36  m  00 32 33.255456 +01 15 04.46830
 2018-Aug-22 06:37  m  00 32 33.285056 +01 15 04.73974
 2018-Aug-22 06:38  m  00 32 33.314631 +01 15 05.01119
 2018-Aug-22 06:39  m  00 32 33.344179 +01 15 05.28263
 2018-Aug-22 06:40  m  00 32 33.373702 +01 15 05.55407
 2018-Aug-22 06:41  r  00 32 33.403199 +01 15 05.82552
 2018-Aug-22 06:42  m  00 32 33.432670 +01 15 06.09696
 2018-Aug-22 06:43  m  00 32 33.462115 +01 15 06.36841
 2018-Aug-22 06:44  m  00 32 33.491534 +01 15 06.63986
 2018-Aug-22 06:45  m  00 32 33.520928 +01 15 06.91130
 2018-Aug-22 06:46  m  00 32 33.550295 +01 15 07.18275
 2018-Aug-22 06:47  m  00 32 33.579636 +01 15 07.45420
 2018-Aug-22 06:48  m  00 32 33.608952 +01 15 07.72564
 2018-Aug-22 06:49  m  00 32 33.638241 +01 15 07.99709
 2018-Aug-22 06:50  m  00 32 33.667505 +01 15 08.26854
 2018-Aug-22 06:51  m  00 32 33.696743 +01 15 08.53999
 2018-Aug-22 06:52  m  00 32 33.725955 +01 15 08.81143
 2018-Aug-22 06:53  m  00 32 33.755141 +01 15 09.08288
 2018-Aug-22 06:54  m  00 32 33.784301 +01 15 09.35433
 2018-Aug-22 06:55  m  00 32 33.813435 +01 15 09.62578
 2018-Aug-22 06:56  m  00 32 33.842543 +01 15 09.89723
 2018-Aug-22 06:57  m  00 32 33.871625 +01 15 10.16868
